[{"OBJECT_NAME":"LEMUR-2-WILSON","OBJECT_ID":"2025-009CP","EPOCH":"2026-03-09T05:30:24.962112","MEAN_MOTION":14.94676648,"ECCENTRICITY":0.00035998,"INCLINATION":97.7068,"RA_OF_ASC_NODE":148.4663,"ARG_OF_PERICENTER":38.3481,"MEAN_ANOMALY":321.7994,"EPHEMERIS_TYPE":0,"CLASSIFICATION_TYPE":"U","NORAD_CAT_ID":62694,"ELEMENT_SET_NO":999,"REV_AT_EPOCH":6242,"BSTAR":0.00038001,"MEAN_MOTION_DOT":4.065e-5,"MEAN_MOTION_DDOT":0},{"OBJECT_NAME":"CZ-4B DEB","OBJECT_ID":"2013-057D","EPOCH":"2026-03-09T09:16:47.914752","MEAN_MOTION":14.5751129,"ECCENTRICITY":0.01795645,"INCLINATION":74.9688,"RA_OF_ASC_NODE":52.7396,"ARG_OF_PERICENTER":117.4056,"MEAN_ANOMALY":244.551,"EPHEMERIS_TYPE":0,"CLASSIFICATION_TYPE":"U","NORAD_CAT_ID":40531,"ELEMENT_SET_NO":999,"REV_AT_EPOCH":57727,"BSTAR":0.00073382472,"MEAN_MOTION_DOT":4.144e-5,"MEAN_MOTION_DDOT":0}]
